{
 "generated_at": "2026-06-29T09:26:28Z",
 "sources": [
  {
   "name": "CelesTrak",
   "url": "https://celestrak.org/NORAD/elements/",
   "license": "frei verfügbar; Attribution. Ursprünglich USSPACECOM/Space-Track."
  },
  {
   "name": "GCAT (J. McDowell, planet4589.org)",
   "url": "https://planet4589.org/space/gcat/",
   "license": "CC-BY 4.0"
  }
 ],
 "satellites": [
  {
   "norad": 62384,
   "name": "ICEYE-X49",
   "intl": "2024-247H",
   "group": "sar",
   "gcat": {
    "class": "B",
    "category": "IMG-R",
    "owner": "ICEYE",
    "state": "FI"
   },
   "omm": {
    "OBJECT_NAME": "ICEYE-X49",
    "OBJECT_ID": "2024-247H",
    "EPOCH": "2026-06-28T17:20:02.060448",
    "MEAN_MOTION": 15.13445574,
    "ECCENTRICITY": 0.00002422,
    "INCLINATION": 44.9973,
    "RA_OF_ASC_NODE": 295.8042,
    "ARG_OF_PERICENTER": 210.6381,
    "MEAN_ANOMALY": 149.4483,
    "EPHEMERIS_TYPE": 0,
    "CLASSIFICATION_TYPE": "U",
    "NORAD_CAT_ID": 62384,
    "ELEMENT_SET_NO": 999,
    "REV_AT_EPOCH": 8392,
    "BSTAR": 0.00025828871,
    "MEAN_MOTION_DOT": 0.0000444,
    "MEAN_MOTION_DDOT": 0
   }
  },
  {
   "norad": 63255,
   "name": "ICEYE-X50",
   "intl": "2025-052AX",
   "group": "sar",
   "gcat": {
    "class": "B",
    "category": "IMG-R",
    "owner": "ICEYE",
    "state": "FI"
   },
   "omm": {
    "OBJECT_NAME": "ICEYE-X50",
    "OBJECT_ID": "2025-052AX",
    "EPOCH": "2026-06-29T00:03:18.542880",
    "MEAN_MOTION": 14.9531794,
    "ECCENTRICITY": 0.00025582,
    "INCLINATION": 97.6882,
    "RA_OF_ASC_NODE": 71.6704,
    "ARG_OF_PERICENTER": 129.8723,
    "MEAN_ANOMALY": 230.2724,
    "EPHEMERIS_TYPE": 0,
    "CLASSIFICATION_TYPE": "U",
    "NORAD_CAT_ID": 63255,
    "ELEMENT_SET_NO": 999,
    "REV_AT_EPOCH": 7041,
    "BSTAR": 0.00013201087,
    "MEAN_MOTION_DOT": 0.00001398,
    "MEAN_MOTION_DDOT": 0
   }
  },
  {
   "norad": 63257,
   "name": "ICEYE-X51",
   "intl": "2025-052AZ",
   "group": "sar",
   "gcat": {
    "class": "B",
    "category": "IMG-R",
    "owner": "ICEUS",
    "state": "US"
   },
   "omm": {
    "OBJECT_NAME": "ICEYE-X51",
    "OBJECT_ID": "2025-052AZ",
    "EPOCH": "2026-06-28T22:11:48.602112",
    "MEAN_MOTION": 15.00873921,
    "ECCENTRICITY": 0.00019444,
    "INCLINATION": 97.7585,
    "RA_OF_ASC_NODE": 74.9966,
    "ARG_OF_PERICENTER": 70.523,
    "MEAN_ANOMALY": 289.6204,
    "EPHEMERIS_TYPE": 0,
    "CLASSIFICATION_TYPE": "U",
    "NORAD_CAT_ID": 63257,
    "ELEMENT_SET_NO": 999,
    "REV_AT_EPOCH": 7056,
    "BSTAR": 0.00029708514,
    "MEAN_MOTION_DOT": 0.00003719,
    "MEAN_MOTION_DDOT": 0
   }
  },
  {
   "norad": 64572,
   "name": "ICEYE-X52",
   "intl": "2025-135AW",
   "group": "sar",
   "gcat": {
    "class": "B",
    "category": "IMG-R",
    "owner": "ICEYE",
    "state": "FI"
   },
   "omm": {
    "OBJECT_NAME": "ICEYE-X52",
    "OBJECT_ID": "2025-135AW",
    "EPOCH": "2026-06-28T22:16:13.205568",
    "MEAN_MOTION": 14.93599317,
    "ECCENTRICITY": 0.00006542,
    "INCLINATION": 97.7757,
    "RA_OF_ASC_NODE": 294.0478,
    "ARG_OF_PERICENTER": 327.2829,
    "MEAN_ANOMALY": 32.835,
    "EPHEMERIS_TYPE": 0,
    "CLASSIFICATION_TYPE": "U",
    "NORAD_CAT_ID": 64572,
    "ELEMENT_SET_NO": 999,
    "REV_AT_EPOCH": 5563,
    "BSTAR": 0.00020585859,
    "MEAN_MOTION_DOT": 0.00002115,
    "MEAN_MOTION_DDOT": 0
   }
  },
  {
   "norad": 64584,
   "name": "ICEYE-X53",
   "intl": "2025-135BJ",
   "group": "sar",
   "gcat": {
    "class": "B",
    "category": "IMG-R",
    "owner": "ICEYE",
    "state": "FI"
   },
   "omm": {
    "OBJECT_NAME": "ICEYE-X53",
    "OBJECT_ID": "2025-135BJ",
    "EPOCH": "2026-06-28T22:59:19.578336",
    "MEAN_MOTION": 15.00956458,
    "ECCENTRICITY": 0.00014871,
    "INCLINATION": 97.738,
    "RA_OF_ASC_NODE": 296.6911,
    "ARG_OF_PERICENTER": 169.4667,
    "MEAN_ANOMALY": 190.6588,
    "EPHEMERIS_TYPE": 0,
    "CLASSIFICATION_TYPE": "U",
    "NORAD_CAT_ID": 64584,
    "ELEMENT_SET_NO": 999,
    "REV_AT_EPOCH": 5584,
    "BSTAR": 0.00010295712,
    "MEAN_MOTION_DOT": 0.00001252,
    "MEAN_MOTION_DDOT": 0
   }
  },
  {
   "norad": 64570,
   "name": "ICEYE-X54",
   "intl": "2025-135AU",
   "group": "sar",
   "gcat": {
    "class": "B",
    "category": "IMG-R",
    "owner": "ICEYE",
    "state": "FI"
   },
   "omm": {
    "OBJECT_NAME": "ICEYE-X54",
    "OBJECT_ID": "2025-135AU",
    "EPOCH": "2026-06-28T22:35:48.914304",
    "MEAN_MOTION": 14.94614924,
    "ECCENTRICITY": 0.00006281,
    "INCLINATION": 97.774,
    "RA_OF_ASC_NODE": 294.2498,
    "ARG_OF_PERICENTER": 260.036,
    "MEAN_ANOMALY": 100.0789,
    "EPHEMERIS_TYPE": 0,
    "CLASSIFICATION_TYPE": "U",
    "NORAD_CAT_ID": 64570,
    "ELEMENT_SET_NO": 999,
    "REV_AT_EPOCH": 5565,
    "BSTAR": 0.00024539912,
    "MEAN_MOTION_DOT": 0.000026,
    "MEAN_MOTION_DDOT": 0
   }
  },
  {
   "norad": 64581,
   "name": "ICEYE-X55",
   "intl": "2025-135BF",
   "group": "sar",
   "gcat": {
    "class": "B",
    "category": "IMG-R",
    "owner": "ICEYE",
    "state": "FI"
   },
   "omm": {
    "OBJECT_NAME": "ICEYE-X55",
    "OBJECT_ID": "2025-135BF",
    "EPOCH": "2026-06-28T22:38:27.865248",
    "MEAN_MOTION": 14.95277911,
    "ECCENTRICITY": 0.00019326,
    "INCLINATION": 97.7761,
    "RA_OF_ASC_NODE": 294.6452,
    "ARG_OF_PERICENTER": 336.183,
    "MEAN_ANOMALY": 23.9301,
    "EPHEMERIS_TYPE": 0,
    "CLASSIFICATION_TYPE": "U",
    "NORAD_CAT_ID": 64581,
    "ELEMENT_SET_NO": 999,
    "REV_AT_EPOCH": 5567,
    "BSTAR": 0.00031898534,
    "MEAN_MOTION_DOT": 0.00003455,
    "MEAN_MOTION_DDOT": 0
   }
  },
  {
   "norad": 64574,
   "name": "ICEYE-X56",
   "intl": "2025-135AY",
   "group": "sar",
   "gcat": {
    "class": "B",
    "category": "IMG-R",
    "owner": "ICEYE",
    "state": "FI"
   },
   "omm": {
    "OBJECT_NAME": "ICEYE-X56",
    "OBJECT_ID": "2025-135AY",
    "EPOCH": "2026-06-28T22:33:59.682240",
    "MEAN_MOTION": 14.95677923,
    "ECCENTRICITY": 0.00005717,
    "INCLINATION": 97.7762,
    "RA_OF_ASC_NODE": 294.806,
    "ARG_OF_PERICENTER": 346.4287,
    "MEAN_ANOMALY": 13.6919,
    "EPHEMERIS_TYPE": 0,
    "CLASSIFICATION_TYPE": "U",
    "NORAD_CAT_ID": 64574,
    "ELEMENT_SET_NO": 999,
    "REV_AT_EPOCH": 5568,
    "BSTAR": 0.000338931,
    "MEAN_MOTION_DOT": 0.00003713,
    "MEAN_MOTION_DDOT": 0
   }
  },
  {
   "norad": 64578,
   "name": "ICEYE-X57",
   "intl": "2025-135BC",
   "group": "sar",
   "gcat": {
    "class": "B",
    "category": "IMG-R",
    "owner": "ICEUS",
    "state": "US"
   },
   "omm": {
    "OBJECT_NAME": "ICEYE-X57",
    "OBJECT_ID": "2025-135BC",
    "EPOCH": "2026-06-28T22:24:42.698592",
    "MEAN_MOTION": 15.00851697,
    "ECCENTRICITY": 0.00020125,
    "INCLINATION": 97.7982,
    "RA_OF_ASC_NODE": 296.4312,
    "ARG_OF_PERICENTER": 62.1316,
    "MEAN_ANOMALY": 298.0111,
    "EPHEMERIS_TYPE": 0,
    "CLASSIFICATION_TYPE": "U",
    "NORAD_CAT_ID": 64578,
    "ELEMENT_SET_NO": 999,
    "REV_AT_EPOCH": 5578,
    "BSTAR": 0.00031467498,
    "MEAN_MOTION_DOT": 0.0000394,
    "MEAN_MOTION_DDOT": 0
   }
  },
  {
   "norad": 66751,
   "name": "ICEYE-X58",
   "intl": "2025-276CP",
   "group": "sar",
   "gcat": {
    "class": "B",
    "category": "IMG-R",
    "owner": "ICEYE",
    "state": "FI"
   },
   "omm": {
    "OBJECT_NAME": "ICEYE-X58",
    "OBJECT_ID": "2025-276CP",
    "EPOCH": "2026-06-28T17:26:42.713664",
    "MEAN_MOTION": 15.17435387,
    "ECCENTRICITY": 0.00018314,
    "INCLINATION": 97.4208,
    "RA_OF_ASC_NODE": 252.9417,
    "ARG_OF_PERICENTER": 315.1224,
    "MEAN_ANOMALY": 44.9862,
    "EPHEMERIS_TYPE": 0,
    "CLASSIFICATION_TYPE": "U",
    "NORAD_CAT_ID": 66751,
    "ELEMENT_SET_NO": 999,
    "REV_AT_EPOCH": 3216,
    "BSTAR": 0.00013159148,
    "MEAN_MOTION_DOT": 0.00002566,
    "MEAN_MOTION_DDOT": 0
   }
  }
 ]
}
