ICEYE-X49               
1 62384U 24247H   26179.72224607  .00004440  00000+0  25829-3 0  9997
2 62384  44.9973 295.8042 0000242 210.6381 149.4483 15.13445574 83924
ICEYE-X50               
1 63255U 25052AX  26180.00229795  .00001398  00000+0  13201-3 0  9996
2 63255  97.6882  71.6704 0002558 129.8723 230.2724 14.95317940 70415
ICEYE-X51               
1 63257U 25052AZ  26179.92486808  .00003719  00000+0  29709-3 0  9996
2 63257  97.7585  74.9966 0001944  70.5230 289.6204 15.00873921 70567
ICEYE-X54               
1 64570U 25135AU  26179.94153836  .00002600  00000+0  24540-3 0  9997
2 64570  97.7740 294.2498 0000628 260.0360 100.0789 14.94614924 55659
ICEYE-X52               
1 64572U 25135AW  26179.92793062  .00002115  00000+0  20586-3 0  9995
2 64572  97.7757 294.0478 0000654 327.2829  32.8350 14.93599317 55631
ICEYE-X56               
1 64574U 25135AY  26179.94027410  .00003713  00000+0  33893-3 0  9996
2 64574  97.7762 294.8060 0000571 346.4287  13.6919 14.95677923 55688
ICEYE-X57               
1 64578U 25135BC  26179.93382753  .00003940  00000+0  31467-3 0  9990
2 64578  97.7982 296.4312 0002012  62.1316 298.0111 15.00851697 55784
ICEYE-X55               
1 64581U 25135BF  26179.94337807  .00003455  00000+0  31899-3 0  9995
2 64581  97.7761 294.6452 0001932 336.1830  23.9301 14.95277911 55671
ICEYE-X53               
1 64584U 25135BJ  26179.95786549  .00001252  00000+0  10296-3 0  9991
2 64584  97.7380 296.6911 0001487 169.4667 190.6588 15.00956458 55848
ICEYE-X58               
1 66751U 25276CP  26179.72688326  .00002566  00000+0  13159-3 0  9994
2 66751  97.4208 252.9417 0001831 315.1224  44.9862 15.17435387 32167
